{"type": "FeatureCollection", "features": [ {"type": "Feature", "properties": {"norad_id": 34833, "name": "IRIDIUM 33 DEB", "group": "iridium-33-debris", "lat": -45.910426397099926, "lon": 42.92863143502857, "alt_km": 730.5734141229168, "timestamp": "2025-12-22T18:58:53.818274+00:00", "meta": {"OBJECT_NAME": "IRIDIUM 33 DEB", "OBJECT_ID": "1997-051MH", "EPOCH": "2025-12-21T03:45:30.832704", "MEAN_MOTION": 14.52421073, "ECCENTRICITY": 0.00214678, "INCLINATION": 86.3927, "RA_OF_ASC_NODE": 47.3667, "ARG_OF_PERICENTER": 72.8031, "MEAN_ANOMALY": 341.7014, "EPHEMERIS_TYPE": 0, "CLASSIFICATION_TYPE": "U", "NORAD_CAT_ID": 34833, "ELEMENT_SET_NO": 999, "REV_AT_EPOCH": 87837, "BSTAR": 0.00044712979, "MEAN_MOTION_DOT": 1.848e-05, "MEAN_MOTION_DDOT": 0}, "tle": {"line1": "1 34833U 97051MH  25355.15660686  .00001848  00000+0  44713-3 0  9993", "line2": "2 34833  86.3927  47.3667 0021467  72.8031 341.7014 14.52421073878374"}}, "geometry": {"type": "Point", "coordinates": [42.92863143502857, -45.910426397099926]}}, {"type": "Feature", "properties": {"norad_id": 34870, "name": "IRIDIUM 33 DEB", "group": "iridium-33-debris", "lat": 77.04633584950876, "lon": -34.23204008210347, "alt_km": 628.5162877472076, "timestamp": "2025-12-22T18:58:53.818286+00:00", "meta": {"OBJECT_NAME": "IRIDIUM 33 DEB", "OBJECT_ID": "1997-051MQ", "EPOCH": "2025-12-21T21:48:47.340864", "MEAN_MOTION": 14.76591295, "ECCENTRICITY": 0.00176063, "INCLINATION": 86.3113, "RA_OF_ASC_NODE": 309.8837, "ARG_OF_PERICENTER": 150.0243, "MEAN_ANOMALY": 282.2367, "EPHEMERIS_TYPE": 0, "CLASSIFICATION_TYPE": "U", "NORAD_CAT_ID": 34870, "ELEMENT_SET_NO": 999, "REV_AT_EPOCH": 89046, "BSTAR": 0.0014110909, "MEAN_MOTION_DOT": 9.902e-05, "MEAN_MOTION_DDOT": 0}, "tle": {"line1": "1 34870U 97051MQ  25355.90888126  .00009902  00000+0  14111-2 0  9995", "line2": "2 34870  86.3113 309.8837 0017606 150.0243 282.2367 14.76591295890465"}}, "geometry": {"type": "Point", "coordinates": [-34.23204008210347, 77.04633584950876]}}, {"type": "Feature", "properties": {"norad_id": 34896, "name": "IRIDIUM 33 DEB", "group": "iridium-33-debris", "lat": -86.267417794503, "lon": -117.53539741620622, "alt_km": 680.7980240691841, "timestamp": "2025-12-22T18:58:53.818296+00:00", "meta": {"OBJECT_NAME": "IRIDIUM 33 DEB", "OBJECT_ID": "1997-051MY", "EPOCH": "2025-12-22T04:42:04.437216", "MEAN_MOTION": 14.66361603, "ECCENTRICITY": 0.00254644, "INCLINATION": 86.3297, "RA_OF_ASC_NODE": 322.4431, "ARG_OF_PERICENTER": 180.4876, "MEAN_ANOMALY": 190.8945, "EPHEMERIS_TYPE": 0, "CLASSIFICATION_TYPE": "U", "NORAD_CAT_ID": 34896, "ELEMENT_SET_NO": 999, "REV_AT_EPOCH": 87758, "BSTAR": 0.00089124778, "MEAN_MOTION_DOT": 4.968e-05, "MEAN_MOTION_DDOT": 0}, "tle": {"line1": "1 34896U 97051MY  25356.19588469  .00004968  00000+0  89125-3 0  9997", "line2": "2 34896  86.3297 322.4431 0025464 180.4876 190.8945 14.66361603877588"}}, "geometry": {"type": "Point", "coordinates": [-117.53539741620622, -86.267417794503]}}, {"type": "Feature", "properties": {"norad_id": 34926, "name": "IRIDIUM 33 DEB", "group": "iridium-33-debris", "lat": -64.5166865023533, "lon": -4.549655673215427, "alt_km": 675.0797526545994, "timestamp": "2025-12-22T18:58:53.818307+00:00", "meta": {"OBJECT_NAME": "IRIDIUM 33 DEB", "OBJECT_ID": "1997-051NF", "EPOCH": "2025-12-21T19:20:10.732992", "MEAN_MOTION": 14.5478701, "ECCENTRICITY": 0.00744409, "INCLINATION": 86.132, "RA_OF_ASC_NODE": 4.0681, "ARG_OF_PERICENTER": 261.3659, "MEAN_ANOMALY": 276.799, "EPHEMERIS_TYPE": 0, "CLASSIFICATION_TYPE": "U", "NORAD_CAT_ID": 34926, "ELEMENT_SET_NO": 999, "REV_AT_EPOCH": 86588, "BSTAR": 0.0043404181, "MEAN_MOTION_DOT": 0.0001936, "MEAN_MOTION_DDOT": 0}, "tle": {"line1": "1 34926U 97051NF  25355.80567978  .00019360  00000+0  43404-2 0  9991", "line2": "2 34926  86.1320   4.0681 0074440 261.3659 276.7990 14.54787010865888"}}, "geometry": {"type": "Point", "coordinates": [-4.549655673215427, -64.5166865023533]}}, {"type": "Feature", "properties": {"norad_id": 34985, "name": "IRIDIUM 33 DEB", "group": "iridium-33-debris", "lat": -35.710006426827555, "lon": 49.975999544523965, "alt_km": 769.6242477647556, "timestamp": "2025-12-22T18:58:53.818318+00:00", "meta": {"OBJECT_NAME": "IRIDIUM 33 DEB", "OBJECT_ID": "1997-051NR", "EPOCH": "2025-12-21T03:18:55.645056", "MEAN_MOTION": 14.42041434, "ECCENTRICITY": 0.00216435, "INCLINATION": 86.369, "RA_OF_ASC_NODE": 53.2972, "ARG_OF_PERICENTER": 191.5239, "MEAN_ANOMALY": 198.031, "EPHEMERIS_TYPE": 0, "CLASSIFICATION_TYPE": "U", "NORAD_CAT_ID": 34985, "ELEMENT_SET_NO": 999, "REV_AT_EPOCH": 87296, "BSTAR": 0.00042163262, "MEAN_MOTION_DOT": 1.407e-05, "MEAN_MOTION_DDOT": 0}, "tle": {"line1": "1 34985U 97051NR  25355.13814404  .00001407  00000+0  42163-3 0  9996", "line2": "2 34985  86.3690  53.2972 0021643 191.5239 198.0310 14.42041434872968"}}, "geometry": {"type": "Point", "coordinates": [49.975999544523965, -35.710006426827555]}}, {"type": "Feature", "properties": {"norad_id": 35051, "name": "IRIDIUM 33 DEB", "group": "iridium-33-debris", "lat": 80.34270666843186, "lon": 162.28383063403513, "alt_km": 720.0998348695157, "timestamp": "2025-12-22T18:58:53.818328+00:00", "meta": {"OBJECT_NAME": "IRIDIUM 33 DEB", "OBJECT_ID": "1997-051NX", "EPOCH": "2025-12-22T06:54:52.657344", "MEAN_MOTION": 14.47638287, "ECCENTRICITY": 0.00103324, "INCLINATION": 86.324, "RA_OF_ASC_NODE": 4.7003, "ARG_OF_PERICENTER": 64.6689, "MEAN_ANOMALY": 295.5583, "EPHEMERIS_TYPE": 0, "CLASSIFICATION_TYPE": "U", "NORAD_CAT_ID": 35051, "ELEMENT_SET_NO": 999, "REV_AT_EPOCH": 87134, "BSTAR": 0.00063041761, "MEAN_MOTION_DOT": 2.343e-05, "MEAN_MOTION_DDOT": 0}, "tle": {"line1": "1 35051U 97051NX  25356.28810946  .00002343  00000+0  63042-3 0  9994", "line2": "2 35051  86.3240   4.7003 0010332  64.6689 295.5583 14.47638287871341"}}, "geometry": {"type": "Point", "coordinates": [162.28383063403513, 80.34270666843186]}}, {"type": "Feature", "properties": {"norad_id": 35052, "name": "IRIDIUM 33 DEB", "group": "iridium-33-debris", "lat": -80.92814889323665, "lon": -7.534950004965886, "alt_km": 777.9641344955717, "timestamp": "2025-12-22T18:58:53.818338+00:00", "meta": {"OBJECT_NAME": "IRIDIUM 33 DEB", "OBJECT_ID": "1997-051NY", "EPOCH": "2025-12-20T18:56:48.199200", "MEAN_MOTION": 14.3850059, "ECCENTRICITY": 0.00133727, "INCLINATION": 86.33, "RA_OF_ASC_NODE": 17.0245, "ARG_OF_PERICENTER": 62.6597, "MEAN_ANOMALY": 297.5961, "EPHEMERIS_TYPE": 0, "CLASSIFICATION_TYPE": "U", "NORAD_CAT_ID": 35052, "ELEMENT_SET_NO": 999, "REV_AT_EPOCH": 87391, "BSTAR": 0.00012651118, "MEAN_MOTION_DOT": 4.07e-06, "MEAN_MOTION_DDOT": 0}, "tle": {"line1": "1 35052U 97051NY  25354.78944675  .00000407  00000+0  12651-3 0  9994", "line2": "2 35052  86.3300  17.0245 0013372  62.6597 297.5961 14.38500590873919"}}, "geometry": {"type": "Point", "coordinates": [-7.534950004965886, -80.92814889323665]}}, {"type": "Feature", "properties": {"norad_id": 35080, "name": "IRIDIUM 33 DEB", "group": "iridium-33-debris", "lat": 31.275043862948852, "lon": 49.878674158693755, "alt_km": 621.8389309617014, "timestamp": "2025-12-22T18:58:53.818349+00:00", "meta": {"OBJECT_NAME": "IRIDIUM 33 DEB", "OBJECT_ID": "1997-051PF", "EPOCH": "2025-12-20T15:09:22.011264", "MEAN_MOTION": 14.86879121, "ECCENTRICITY": 0.005897, "INCLINATION": 86.2079, "RA_OF_ASC_NODE": 48.603, "ARG_OF_PERICENTER": 152.5629, "MEAN_ANOMALY": 207.8731, "EPHEMERIS_TYPE": 0, "CLASSIFICATION_TYPE": "U", "NORAD_CAT_ID": 35080, "ELEMENT_SET_NO": 999, "REV_AT_EPOCH": 69805, "BSTAR": 0.0035206, "MEAN_MOTION_DOT": 0.00032575, "MEAN_MOTION_DDOT": 0}, "tle": {"line1": "1 35080U 97051PF  25354.63150476  .00032575  00000+0  35206-2 0  9998", "line2": "2 35080  86.2079  48.6030 0058970 152.5629 207.8731 14.86879121698053"}}, "geometry": {"type": "Point", "coordinates": [49.878674158693755, 31.275043862948852]}}, {"type": "Feature", "properties": {"norad_id": 35297, "name": "IRIDIUM 33 DEB", "group": "iridium-33-debris", "lat": 66.28522992695368, "lon": 66.74189910743917, "alt_km": 725.6189970132082, "timestamp": "2025-12-22T18:58:53.818360+00:00", "meta": {"OBJECT_NAME": "IRIDIUM 33 DEB", "OBJECT_ID": "1997-051PM", "EPOCH": "2025-12-20T11:50:15.220608", "MEAN_MOTION": 14.451882, "ECCENTRICITY": 0.00180204, "INCLINATION": 86.386, "RA_OF_ASC_NODE": 59.4502, "ARG_OF_PERICENTER": 117.2164, "MEAN_ANOMALY": 243.0877, "EPHEMERIS_TYPE": 0, "CLASSIFICATION_TYPE": "U", "NORAD_CAT_ID": 35297, "ELEMENT_SET_NO": 999, "REV_AT_EPOCH": 70538, "BSTAR": 0.00041153613, "MEAN_MOTION_DOT": 1.463e-05, "MEAN_MOTION_DDOT": 0}, "tle": {"line1": "1 35297U 97051PM  25354.49323172  .00001463  00000+0  41154-3 0  9999", "line2": "2 35297  86.3860  59.4502 0018020 117.2164 243.0877 14.45188200705384"}}, "geometry": {"type": "Point", "coordinates": [66.74189910743917, 66.28522992695368]}}, {"type": "Feature", "properties": {"norad_id": 35299, "name": "IRIDIUM 33 DEB", "group": "iridium-33-debris", "lat": -24.993256754380745, "lon": -149.45528424338582, "alt_km": 790.5890830048429, "timestamp": "2025-12-22T18:58:53.818370+00:00", "meta": {"OBJECT_NAME": "IRIDIUM 33 DEB", "OBJECT_ID": "1997-051PP", "EPOCH": "2025-12-20T13:24:11.661120", "MEAN_MOTION": 14.40896133, "ECCENTRICITY": 0.0058811, "INCLINATION": 86.2869, "RA_OF_ASC_NODE": 29.782, "ARG_OF_PERICENTER": 77.5607, "MEAN_ANOMALY": 74.0895, "EPHEMERIS_TYPE": 0, "CLASSIFICATION_TYPE": "U", "NORAD_CAT_ID": 35299, "ELEMENT_SET_NO": 999, "REV_AT_EPOCH": 86443, "BSTAR": 0.00051106, "MEAN_MOTION_DOT": 1.693e-05, "MEAN_MOTION_DDOT": 0}, "tle": {"line1": "1 35299U 97051PP  25354.55846830  .00001693  00000+0  51106-3 0  9992", "line2": "2 35299  86.2869  29.7820 0058811  77.5607  74.0895 14.40896133864439"}}, "geometry": {"type": "Point", "coordinates": [-149.45528424338582, -24.993256754380745]}}]}